VERTECS                 
1 69506U 26132E   26189.41577497  .00001096  00000+0  90460-4 0  9998
2 69506  97.6833 252.8810 0014938 229.3345 130.6581 15.00975675  3959
HORN-R                  
1 69507U 26132F   26189.11489311  .00001223  00000+0  89758-4 0  9993
2 69507  97.6888 252.6451 0018467 229.6695 130.2919 15.05258350  3917
STARLINK-37536          
1 69508U 26133A   26189.35348847  .00031472  00000+0  57056-3 0  9993
2 69508  53.1600 217.5626 0000676  68.1109 291.9972 15.49363079  4097
STARLINK-37341          
1 69509U 26133B   26189.48434790  .00040863  00000+0  73800-3 0  9990
2 69509  53.1605 216.9611 0000588  89.0435 271.0642 15.49344837  4124
STARLINK-36536          
1 69510U 26133C   26189.50002315  .00537043  00000+0  90759-2 0  9991
2 69510  53.1611 216.1408 0000835 325.8283 131.1643 15.49118235  5349
STARLINK-37420          
1 69511U 26133D   26189.50002315 -.02508017  00000+0 -45646-1 0  9999
2 69511  53.1607 215.8845 0001519  77.0803 145.4886 15.52326626  5290
STARLINK-37511          
1 69512U 26133E   26189.50002315 -.02201800  00000+0 -43304-1 0  9999
2 69512  53.1611 215.9128 0001397  74.3535 134.1565 15.50296626  5290
STARLINK-37552          
1 69513U 26133F   26189.35476588  .00030187  00000+0  54781-3 0  9997
2 69513  53.1597 217.5694 0004370  85.8702 274.2806 15.49349249  5367
STARLINK-37607          
1 69514U 26133G   26189.50002315 -.01252639  00000+0 -25625-1 0  9992
2 69514  53.1608 215.9611 0001863  60.6753 123.5023 15.48403919  5296
STARLINK-37232          
1 69515U 26133H   26189.45900933  .00037299  00000+0  67510-3 0  9991
2 69515  53.1595 216.7906 0001399  80.6678 279.4490 15.49325221  4119
STARLINK-37323          
1 69516U 26133J   26189.50002315 -.02253566  00000+0 -44494-1 0  9990
2 69516  53.1599 215.7456 0001632  87.4041 202.2103 15.50274324  5296
STARLINK-37357          
1 69517U 26133K   26189.35404741  .00030712  00000+0  55673-3 0  9998
2 69517  53.1589 217.5621 0000504 270.2321  89.8630 15.49378527  5359
STARLINK-37408          
1 69518U 26133L   26189.50002315  .00072306  00000+0  12961-2 0  9994
2 69518  53.1604 216.1295 0001508  30.1467  69.1687 15.49308917  5291
STARLINK-37570          
1 69519U 26133M   26189.00002315  .00066157  00000+0  11887-2 0  9993
2 69519  53.1601 219.0110 0000992  86.0657 217.7361 15.49281491  5213
STARLINK-37510          
1 69520U 26133N   26189.06996875  .00040441  00000+0  73076-3 0  9991
2 69520  53.1599 218.6262 0000867 101.4638 258.6469 15.49334972  5324
STARLINK-37586          
1 69521U 26133P   26189.50002315 -.02541798  00000+0 -52158-1 0  9999
2 69521  53.1600 215.6221 0000703  87.4201 260.8019 15.49042786  5299
STARLINK-37379          
1 69522U 26133Q   26189.50002315  .00068253  00000+0  12260-2 0  9997
2 69522  53.1601 216.2617 0001694  76.5202 315.6309 15.49275394  5347
STARLINK-37429          
1 69523U 26133R   26189.33817793  .00052945  00000+0  94938-3 0  9997
2 69523  53.1600 217.4542 0001624  94.7805 265.3389 15.49434063  5362
STARLINK-37352          
1 69524U 26133S   26189.50002315  .00069195  00000+0  12427-2 0  9990
2 69524  53.1601 216.2446 0001126  76.6391 323.2480 15.49274613  5347
STARLINK-37490          
1 69525U 26133T   26189.50002315  .00067128  00000+0  12048-2 0  9994
2 69525  53.1599 215.7780 0001370  29.8507 239.1683 15.49304805  5346
STARLINK-37438          
1 69526U 26133U   26189.57143984  .00061257  00000+0  11010-2 0  9995
2 69526  53.1596 216.0589 0001087  60.8248 299.2870 15.49303920  5406
STARLINK-37484          
1 69527U 26133V   26189.50002315  .00046454  00000+0  83858-3 0  9993
2 69527  53.1598 215.6848 0001447  95.9440 219.1318 15.49300859  5344
STARLINK-37523          
1 69528U 26133W   26189.50002315  .00070140  00000+0  12595-2 0  9992
2 69528  53.1602 216.2109 0001144  81.9522 333.3466 15.49273324  5347
STARLINK-37369          
1 69529U 26133X   26189.50002315  .00093701  00000+0  16733-2 0  9999
2 69529  53.1603 216.1696 0000719  77.6077 357.3067 15.49298842  5348
STARLINK-37670          
1 69530U 26133Y   26189.37257132  .00030231  00000+0  54871-3 0  9990
2 69530  53.1602 216.9443 0000769 318.3905  41.7046 15.49350315  5375
STARLINK-37897          
1 69531U 26133Z   26189.50002315  .00065614  00000+0  11786-2 0  9997
2 69531  53.1599 215.6624 0001235  25.1140 298.5710 15.49292887  5303
STARLINK-37933          
1 69532U 26133AA  26189.50002315 -.01800538  00000+0 -48326-1 0  9992
2 69532  53.1603 216.0817 0001446  68.8751  46.5560 15.40604489  5305
STARLINK-37890          
1 69533U 26133AB  26189.50002315 -.02661001  00000+0 -82472-1 0  9994
2 69533  53.1612 215.9599 0001841  59.9615 114.8668 15.36457595  5307
STARLINK-37407          
1 69534U 26133AC  26189.50002315 -.02752227  00000+0 -80748-1 0  9990
2 69534  53.1601 215.8013 0000721  67.6460 184.8983 15.38267949  5341
STARLINK-37888          
1 69535U 26133AD  26189.50002315  .00065897  00000+0  18889-2 0  9995
2 69535  53.1602 215.8644 0001827  56.6376 163.0417 15.35310034  5303
