OBJECT_NAME,OBJECT_ID,EPOCH,MEAN_MOTION,ECCENTRICITY,INCLINATION,RA_OF_ASC_NODE,ARG_OF_PERICENTER,MEAN_ANOMALY,EPHEMERIS_TYPE,CLASSIFICATION_TYPE,NORAD_CAT_ID,ELEMENT_SET_NO,REV_AT_EPOCH,BSTAR,MEAN_MOTION_DOT,MEAN_MOTION_DDOT
VERTECS,2026-132E,2026-07-08T09:58:42.957408,15.00975675,.00149385,97.6833,252.8810,229.3345,130.6581,0,U,69506,999,395,.90460201E-4,.1096E-4,0
HORN-R,2026-132F,2026-07-08T02:45:26.764704,15.05258350,.00184676,97.6888,252.6451,229.6695,130.2919,0,U,69507,999,391,.89758291E-4,.1223E-4,0
STARLINK-37536,2026-133A,2026-07-08T08:29:01.403808,15.49363079,.00006769,53.1600,217.5626,68.1109,291.9972,0,U,69508,999,409,.57055693E-3,.31472E-3,0
STARLINK-37341,2026-133B,2026-07-08T11:37:27.658560,15.49344837,.00005885,53.1605,216.9611,89.0435,271.0642,0,U,69509,999,412,.73800327E-3,.40863E-3,0
STARLINK-36536,2026-133C,2026-07-08T12:00:02.000160,15.49118235,.0000835,53.1611,216.1408,325.8283,131.1643,0,U,69510,999,534,.90758687E-2,.537043E-2,0
STARLINK-37420,2026-133D,2026-07-08T12:00:02.000160,15.52326626,.00015198,53.1607,215.8845,77.0803,145.4886,0,U,69511,999,529,-.45646031E-1,-.2508017E-1,0
STARLINK-37511,2026-133E,2026-07-08T12:00:02.000160,15.50296626,.0001397,53.1611,215.9128,74.3535,134.1565,0,U,69512,999,529,-.43303826E-1,-.22018E-1,0
STARLINK-37552,2026-133F,2026-07-08T08:30:51.772032,15.49349249,.00043702,53.1597,217.5694,85.8702,274.2806,0,U,69513,999,536,.5478097E-3,.30187E-3,0
STARLINK-37607,2026-133G,2026-07-08T12:00:02.000160,15.48403919,.00018636,53.1608,215.9611,60.6753,123.5023,0,U,69514,999,529,-.25624982E-1,-.1252639E-1,0
STARLINK-37232,2026-133H,2026-07-08T11:00:58.406112,15.49325221,.00013994,53.1595,216.7906,80.6678,279.4490,0,U,69515,999,411,.67510461E-3,.37299E-3,0
STARLINK-37323,2026-133J,2026-07-08T12:00:02.000160,15.50274324,.00016323,53.1599,215.7456,87.4041,202.2103,0,U,69516,999,529,-.4449415E-1,-.2253566E-1,0
STARLINK-37357,2026-133K,2026-07-08T08:29:49.696224,15.49378527,.00005047,53.1589,217.5621,270.2321,89.8630,0,U,69517,999,535,.55673135E-3,.30712E-3,0
STARLINK-37408,2026-133L,2026-07-08T12:00:02.000160,15.49308917,.00015082,53.1604,216.1295,30.1467,69.1687,0,U,69518,999,529,.12961055E-2,.72306E-3,0
STARLINK-37570,2026-133M,2026-07-08T00:00:02.000160,15.49281491,.00009923,53.1601,219.0110,86.0657,217.7361,0,U,69519,999,521,.11886559E-2,.66157E-3,0
STARLINK-37510,2026-133N,2026-07-08T01:40:45.300000,15.49334972,.00008679,53.1599,218.6262,101.4638,258.6469,0,U,69520,999,532,.73075761E-3,.40441E-3,0
STARLINK-37586,2026-133P,2026-07-08T12:00:02.000160,15.49042786,.00007038,53.1600,215.6221,87.4201,260.8019,0,U,69521,999,529,-.52157602E-1,-.2541798E-1,0
STARLINK-37379,2026-133Q,2026-07-08T12:00:02.000160,15.49275394,.00016947,53.1601,216.2617,76.5202,315.6309,0,U,69522,999,534,.12259649E-2,.68253E-3,0
STARLINK-37429,2026-133R,2026-07-08T08:06:58.573152,15.49434063,.0001624,53.1600,217.4542,94.7805,265.3389,0,U,69523,999,536,.94937897E-3,.52945E-3,0
STARLINK-37352,2026-133S,2026-07-08T12:00:02.000160,15.49274613,.00011269,53.1601,216.2446,76.6391,323.2480,0,U,69524,999,534,.12426796E-2,.69195E-3,0
STARLINK-37490,2026-133T,2026-07-08T12:00:02.000160,15.49304805,.00013702,53.1599,215.7780,29.8507,239.1683,0,U,69525,999,534,.12048344E-2,.67128E-3,0
STARLINK-37438,2026-133U,2026-07-08T13:42:52.402176,15.49303920,.00010876,53.1596,216.0589,60.8248,299.2870,0,U,69526,999,540,.11010227E-2,.61257E-3,0
STARLINK-37484,2026-133V,2026-07-08T12:00:02.000160,15.49300859,.00014474,53.1598,215.6848,95.9440,219.1318,0,U,69527,999,534,.83857739E-3,.46454E-3,0
STARLINK-37523,2026-133W,2026-07-08T12:00:02.000160,15.49273324,.00011446,53.1602,216.2109,81.9522,333.3466,0,U,69528,999,534,.12594539E-2,.7014E-3,0
STARLINK-37369,2026-133X,2026-07-08T12:00:02.000160,15.49298842,.00007194,53.1603,216.1696,77.6077,357.3067,0,U,69529,999,534,.16732512E-2,.93701E-3,0
STARLINK-37670,2026-133Y,2026-07-08T08:56:30.162048,15.49350315,.00007696,53.1602,216.9443,318.3905,41.7046,0,U,69530,999,537,.54871081E-3,.30231E-3,0
STARLINK-37897,2026-133Z,2026-07-08T12:00:02.000160,15.49292887,.00012351,53.1599,215.6624,25.1140,298.5710,0,U,69531,999,530,.11785779E-2,.65614E-3,0
STARLINK-37933,2026-133AA,2026-07-08T12:00:02.000160,15.40604489,.00014468,53.1603,216.0817,68.8751,46.5560,0,U,69532,999,530,-.48326136E-1,-.1800538E-1,0
STARLINK-37890,2026-133AB,2026-07-08T12:00:02.000160,15.36457595,.00018416,53.1612,215.9599,59.9615,114.8668,0,U,69533,999,530,-.82472124E-1,-.2661001E-1,0
STARLINK-37407,2026-133AC,2026-07-08T12:00:02.000160,15.38267949,.00007214,53.1601,215.8013,67.6460,184.8983,0,U,69534,999,534,-.80748036E-1,-.2752227E-1,0
STARLINK-37888,2026-133AD,2026-07-08T12:00:02.000160,15.35310034,.00018278,53.1602,215.8644,56.6376,163.0417,0,U,69535,999,530,.18889338E-2,.65897E-3,0
